{
  "type": "FeatureCollection",
  "features": [
    {
      "type": "Feature",
      "properties": {
        "norad_id": 33844,
        "name": "COSMOS 2251 DEB",
        "group": "cosmos-2251-debris",
        "lat": 50.67128157064976,
        "lon": -158.2843213851602,
        "alt_km": 759.4850665838467,
        "timestamp": "2025-12-18T13:51:50.078777+00:00",
        "meta_object_name": "COSMOS 2251 DEB",
        "meta_object_id": "1993-036CM",
        "meta_epoch": "2025-12-18T05:10:06.537216",
        "meta_mean_motion": 14.33727267,
        "meta_eccentricity": 0.0047062,
        "meta_inclination": 74.0669,
        "meta_ra_of_asc_node": 42.7822,
        "meta_arg_of_pericenter": 62.943,
        "meta_mean_anomaly": 353.6715,
        "meta_ephemeris_type": 0,
        "meta_classification_type": "U",
        "meta_norad_cat_id": 33844,
        "meta_element_set_no": 999,
        "meta_rev_at_epoch": 87804,
        "meta_bstar": 0.00029064769,
        "meta_mean_motion_dot": 7.92e-06,
        "meta_mean_motion_ddot": 0,
        "tle_line1": "1 33844U 93036CM  25352.21535344  .00000792  00000+0  29065-3 0  9999",
        "tle_line2": "2 33844  74.0669  42.7822 0047062  62.9430 353.6715 14.33727267878043"
      },
      "geometry": {
        "type": "Point",
        "coordinates": [
          -158.2843213851602,
          50.67128157064976
        ]
      }
    },
    {
      "type": "Feature",
      "properties": {
        "norad_id": 33848,
        "name": "COSMOS 2251 DEB",
        "group": "cosmos-2251-debris",
        "lat": 16.129249434656753,
        "lon": 162.03069976550208,
        "alt_km": 760.9524225985097,
        "timestamp": "2025-12-18T13:51:50.078788+00:00",
        "meta_object_name": "COSMOS 2251 DEB",
        "meta_object_id": "1993-036CR",
        "meta_epoch": "2025-12-18T06:32:52.755648",
        "meta_mean_motion": 14.4409829,
        "meta_eccentricity": 0.00414319,
        "meta_inclination": 74.0314,
        "meta_ra_of_asc_node": 347.3475,
        "meta_arg_of_pericenter": 41.4848,
        "meta_mean_anomaly": 337.1134,
        "meta_ephemeris_type": 0,
        "meta_classification_type": "U",
        "meta_norad_cat_id": 33848,
        "meta_element_set_no": 999,
        "meta_rev_at_epoch": 87911,
        "meta_bstar": 0.00086050016,
        "meta_mean_motion_dot": 2.952e-05,
        "meta_mean_motion_ddot": 0,
        "tle_line1": "1 33848U 93036CR  25352.27283282  .00002952  00000+0  86050-3 0  9997",
        "tle_line2": "2 33848  74.0314 347.3475 0041431  41.4848 337.1134 14.44098290879111"
      },
      "geometry": {
        "type": "Point",
        "coordinates": [
          162.03069976550208,
          16.129249434656753
        ]
      }
    },
    {
      "type": "Feature",
      "properties": {
        "norad_id": 33892,
        "name": "COSMOS 2251 DEB",
        "group": "cosmos-2251-debris",
        "lat": 10.150887660813488,
        "lon": 94.39121703916862,
        "alt_km": 843.1852963926731,
        "timestamp": "2025-12-18T13:51:50.078798+00:00",
        "meta_object_name": "COSMOS 2251 DEB",
        "meta_object_id": "1993-036CV",
        "meta_epoch": "2025-12-18T07:23:16.473984",
        "meta_mean_motion": 14.23357417,
        "meta_eccentricity": 0.01125557,
        "meta_inclination": 73.8026,
        "meta_ra_of_asc_node": 91.9002,
        "meta_arg_of_pericenter": 122.0603,
        "meta_mean_anomaly": 307.7249,
        "meta_ephemeris_type": 0,
        "meta_classification_type": "U",
        "meta_norad_cat_id": 33892,
        "meta_element_set_no": 999,
        "meta_rev_at_epoch": 87034,
        "meta_bstar": 0.0005509302,
        "meta_mean_motion_dot": 1.308e-05,
        "meta_mean_motion_ddot": 0,
        "tle_line1": "1 33892U 93036CV  25352.30782956  .00001308  00000+0  55093-3 0  9999",
        "tle_line2": "2 33892  73.8026  91.9002 0112555 122.0603 307.7249 14.23357417870348"
      },
      "geometry": {
        "type": "Point",
        "coordinates": [
          94.39121703916862,
          10.150887660813488
        ]
      }
    },
    {
      "type": "Feature",
      "properties": {
        "norad_id": 33894,
        "name": "COSMOS 2251 DEB",
        "group": "cosmos-2251-debris",
        "lat": -51.823642851775276,
        "lon": -41.700717833320766,
        "alt_km": 871.5810684041317,
        "timestamp": "2025-12-18T13:51:50.078808+00:00",
        "meta_object_name": "COSMOS 2251 DEB",
        "meta_object_id": "1993-036CX",
        "meta_epoch": "2025-12-16T23:58:28.001280",
        "meta_mean_motion": 13.21315162,
        "meta_eccentricity": 0.05793568,
        "meta_inclination": 73.767,
        "meta_ra_of_asc_node": 342.4883,
        "meta_arg_of_pericenter": 261.3454,
        "meta_mean_anomaly": 92.1624,
        "meta_ephemeris_type": 0,
        "meta_classification_type": "U",
        "meta_norad_cat_id": 33894,
        "meta_element_set_no": 999,
        "meta_rev_at_epoch": 80764,
        "meta_bstar": 0.00077215059,
        "meta_mean_motion_dot": 7.45e-06,
        "meta_mean_motion_ddot": 0,
        "tle_line1": "1 33894U 93036CX  25350.99893520  .00000745  00000+0  77215-3 0  9998",
        "tle_line2": "2 33894  73.7670 342.4883 0579356 261.3454  92.1624 13.21315162807645"
      },
      "geometry": {
        "type": "Point",
        "coordinates": [
          -41.700717833320766,
          -51.823642851775276
        ]
      }
    },
    {
      "type": "Feature",
      "properties": {
        "norad_id": 33896,
        "name": "COSMOS 2251 DEB",
        "group": "cosmos-2251-debris",
        "lat": -8.367162211105809,
        "lon": 143.62873724091142,
        "alt_km": 753.2276121463883,
        "timestamp": "2025-12-18T13:51:50.078819+00:00",
        "meta_object_name": "COSMOS 2251 DEB",
        "meta_object_id": "1993-036CZ",
        "meta_epoch": "2025-12-17T21:33:31.149216",
        "meta_mean_motion": 14.19051156,
        "meta_eccentricity": 0.01266591,
        "meta_inclination": 73.7661,
        "meta_ra_of_asc_node": 147.3178,
        "meta_arg_of_pericenter": 322.2136,
        "meta_mean_anomaly": 159.0983,
        "meta_ephemeris_type": 0,
        "meta_classification_type": "U",
        "meta_norad_cat_id": 33896,
        "meta_element_set_no": 999,
        "meta_rev_at_epoch": 86813,
        "meta_bstar": 0.00039251566,
        "meta_mean_motion_dot": 8.6e-06,
        "meta_mean_motion_ddot": 0,
        "tle_line1": "1 33896U 93036CZ  25351.89827719  .00000860  00000+0  39252-3 0  9994",
        "tle_line2": "2 33896  73.7661 147.3178 0126659 322.2136 159.0983 14.19051156868134"
      },
      "geometry": {
        "type": "Point",
        "coordinates": [
          143.62873724091142,
          -8.367162211105809
        ]
      }
    },
    {
      "type": "Feature",
      "properties": {
        "norad_id": 33899,
        "name": "COSMOS 2251 DEB",
        "group": "cosmos-2251-debris",
        "lat": 3.7963156182368234,
        "lon": -106.51126623801571,
        "alt_km": 660.8346194750502,
        "timestamp": "2025-12-18T13:51:50.078830+00:00",
        "meta_object_name": "COSMOS 2251 DEB",
        "meta_object_id": "1993-036DC",
        "meta_epoch": "2025-12-18T06:44:58.430976",
        "meta_mean_motion": 14.61238526,
        "meta_eccentricity": 0.00563812,
        "meta_inclination": 74.0544,
        "meta_ra_of_asc_node": 75.1417,
        "meta_arg_of_pericenter": 136.2392,
        "meta_mean_anomaly": 280.5576,
        "meta_ephemeris_type": 0,
        "meta_classification_type": "U",
        "meta_norad_cat_id": 33899,
        "meta_element_set_no": 999,
        "meta_rev_at_epoch": 88920,
        "meta_bstar": 0.00068574293,
        "meta_mean_motion_dot": 3.429e-05,
        "meta_mean_motion_ddot": 0,
        "tle_line1": "1 33899U 93036DC  25352.28123184  .00003429  00000+0  68574-3 0  9999",
        "tle_line2": "2 33899  74.0544  75.1417 0056381 136.2392 280.5576 14.61238526889200"
      },
      "geometry": {
        "type": "Point",
        "coordinates": [
          -106.51126623801571,
          3.7963156182368234
        ]
      }
    },
    {
      "type": "Feature",
      "properties": {
        "norad_id": 33900,
        "name": "COSMOS 2251 DEB",
        "group": "cosmos-2251-debris",
        "lat": 27.683910356092397,
        "lon": 160.0919867491889,
        "alt_km": 664.6605597630414,
        "timestamp": "2025-12-18T13:51:50.078841+00:00",
        "meta_object_name": "COSMOS 2251 DEB",
        "meta_object_id": "1993-036DD",
        "meta_epoch": "2025-12-18T06:56:40.857792",
        "meta_mean_motion": 14.58366147,
        "meta_eccentricity": 0.00465888,
        "meta_inclination": 74.0182,
        "meta_ra_of_asc_node": 349.2889,
        "meta_arg_of_pericenter": 139.8143,
        "meta_mean_anomaly": 298.0837,
        "meta_ephemeris_type": 0,
        "meta_classification_type": "U",
        "meta_norad_cat_id": 33900,
        "meta_element_set_no": 999,
        "meta_rev_at_epoch": 89117,
        "meta_bstar": 0.00030704422,
        "meta_mean_motion_dot": 1.413e-05,
        "meta_mean_motion_ddot": 0,
        "tle_line1": "1 33900U 93036DD  25352.28936178  .00001413  00000+0  30704-3 0  9992",
        "tle_line2": "2 33900  74.0182 349.2889 0046588 139.8143 298.0837 14.58366147891170"
      },
      "geometry": {
        "type": "Point",
        "coordinates": [
          160.0919867491889,
          27.683910356092397
        ]
      }
    }
  ]
}